AEROCUBE 8D             
1 41852U 16067E   25116.47234050  .00012298  00000+0  62717-3 0  9997
2 41852  98.1125 311.1334 0005312 123.4196 236.7544 15.16900807462742
AEROCUBE 8C             
1 41853U 16067F   25116.48161817  .00013076  00000+0  66416-3 0  9994
2 41853  98.0963 309.0184 0007056  63.6644 296.5312 15.17016805462734
PROMETHEUS 2-1          
1 41854U 16067G   25115.82914576  .00059722  00000+0  12955-2 0  9996
2 41854  98.0825 324.0680 0006889  60.1088 300.0842 15.44172022463494
PROMETHEUS 2-3          
1 41855U 16067H   25115.83820025  .00062475  00000+0  13559-2 0  9993
2 41855  98.0776 323.2789 0006309  71.8503 288.3430 15.44148019463499
CORVUS BC2              
1 42846U 17042X   25115.89811465  .00007759  00000+0  58590-3 0  9991
2 42846  97.3708 290.6482 0014574  98.3597 261.9281 15.02575213424328
CORVUS BC1              
1 42847U 17042Y   25116.48901694  .00006828  00000+0  51272-3 0  9998
2 42847  97.3758 291.7102 0013933  75.6467 284.6304 15.02834362424430
MIRATA                  
1 43015U 17073C   25116.22394463  .00081683  00000+0  15819-2 0  9990
2 43015  97.5461   9.2759 0089213 245.1237 114.0717 15.43117853403956
MAKERSAT 0              
1 43016U 17073D   25116.22139916  .00023696  00000+0  98244-3 0  9995
2 43016  97.5252 354.8642 0148781 294.0052  64.5665 15.14256103403017
SIRION PATHFINDER-2     
1 43759U 18099B   25116.10630486  .00009320  00000+0  58667-3 0  9996
2 43759  97.4815 170.1047 0008312 301.2964  58.7450 15.09374231349609
CORVUS BC4              
1 43767U 18099K   25116.69150143  .00008019  00000+0  52554-3 0  9999
2 43767  97.4631 166.6964 0008820   4.0916 356.0383 15.07931438349549
MOVE-II                 
1 43780U 18099Y   25116.16608947  .00176631  00000+0  21571-2 0  9996
2 43780  97.4691 188.9696 0003917 241.4942 118.5920 15.59841204350848
SPACEBEE-7              
1 43816U 18099BL  25116.46646839  .00044137  00000+0  13606-2 0  9996
2 43816  97.4992 185.9541 0005492 258.8632 101.1993 15.33454284350035
SHIELDS 1               
1 43850U 18104B   25116.87488449  .00049338  00000+0  65260-3 0  9999
2 43850  85.0152  67.2569 0004534 348.8423  11.2737 15.58121419354646
SONATE                  
1 44400U 19038Q   25116.56314349  .00167183  00000+0  10473-2 0  9995
2 44400  97.6970 138.1688 0007215  77.7112 282.4960 15.76286688322608
DUCHIFAT-3              
1 44854U 19089C   25116.80109161  .00073793  00000+0  16394-2 0  9996
2 44854  36.9449 272.7726 0001513 282.8543  77.2043 15.42570516296171
M2 PATHFINDER           
1 45727U 20037E   25116.50582661  .00006503  00000+0  50126-3 0  9995
2 45727  97.8164 298.8363 0013863 122.0849 238.1723 15.01892265262890
NETSAT-4                
1 46504U 20068U   25116.19543129  .00024989  00000+0  88668-3 0  9994
2 46504  97.8432  91.5677 0007902  18.3346 341.8176 15.29026474251763
NETSAT-3                
1 46505U 20068V   25116.47361289  .00020831  00000+0  77101-3 0  9993
2 46505  97.8428  90.9051 0007874  26.8054 333.3590 15.27678673251775
NETSAT-1                
1 46506U 20068W   25116.45835246  .00015486  00000+0  65600-3 0  9992
2 46506  97.8454  89.0269 0007990  38.6003 321.5803 15.23229334251643
NETSAT-2                
1 46507U 20068X   25116.50199454  .00021820  00000+0  78332-3 0  9998
2 46507  97.8428  91.4053 0007096  44.1587 316.0216 15.28679140251757
WILDTRACKCUBE-SIMBA     
1 47941U 21022K   25116.83311652  .00045867  00000+0  10480-2 0  9990
2 47941  97.4276  20.4584 0012966 107.5186 252.7479 15.42625508226449
GRBALPHA                
1 47959U 21022AD  25116.87472564  .00257763  00000+0  16653-2 0  9991
2 47959  97.4204  27.9895 0010129 103.8627 256.3766 15.75299342225766
LEDSAT                  
1 49069U 21073D   25116.75578914  .00079825  00000+0  11883-2 0  9995
2 49069  97.3920 196.6520 0011560 229.5166 130.5081 15.54784317204619
ROBUSTA-1F (MTCUBE 2)   
1 53109U 22080E   25115.92319866 -.00000003  00000+0  00000+0 0  9990
2 53109  70.1277  83.3494 0008612  17.2777 342.8175  6.42584327 65252
SITRO-AIS 5 (KATYS)     
1 57176U 23091L   25116.89047478  .00016721  00000+0  80228-3 0  9992
2 57176  97.5627 173.7894 0016068 120.9334 239.3482 15.18839028100946
SITRO-AIS 6 (CHIRKIN)   
1 57192U 23091AC  25116.87533788  .00016265  00000+0  78240-3 0  9996
2 57192  97.5624 173.7914 0016024 120.6357 239.6460 15.18757798100940
SITRO-AIS 8 (ANOKHIN)   
1 57193U 23091AD  25116.82198042  .00018655  00000+0  86382-3 0  9993
2 57193  97.5622 174.1531 0015465 120.8988 239.3770 15.20053602100968
SITRO-AIS 7 (FARTUSHNIY)
1 57194U 23091AE  25116.82840764  .00017045  00000+0  82184-3 0  9997
2 57194  97.5624 173.6899 0015802 121.3665 238.9118 15.18668509100938
SITRO-AIS 10 (BURDAEV)  
1 57199U 23091AK  25116.83103918  .00022177  00000+0  93665-3 0  9994
2 57199  97.5633 176.2584 0011300 107.9894 252.2575 15.23213401101093
SITRO-AIS 9 (SHCHUKIN)  
1 57201U 23091AM  25116.84370829  .00021761  00000+0  92370-3 0  9996
2 57201  97.5628 176.1996 0011203 107.8225 252.4234 15.23049420101098
SITRO-AIS 12 (SMIRENNIY)
1 57204U 23091AQ  25116.83162394  .00022570  00000+0  95225-3 0  9995
2 57204  97.5638 176.4500 0011146 102.6198 257.6285 15.23247680101107
SITRO-AIS 11 (SHEFFER)  
1 57208U 23091AU  25116.85569935  .00022718  00000+0  95329-3 0  9992
2 57208  97.5634 176.5515 0010873 102.9141 257.3310 15.23433331101118
VERONIKA                
1 58261U 23174F   25116.84554750  .00140950  00000+0  17533-2 0  9991
2 58261  97.4157 200.7647 0007768 203.4542 156.6361 15.59451130 81844
ROBUSTA-1E (ENSO)       
1 58470U 23185J   25116.83638620  .00071824  00000+0  12303-2 0  9996
2 58470  97.3767 190.7040 0007998 226.7600 133.2985 15.50947554 78249
SITRO-AIS 29            
1 59052U 24039B   25116.86293384  .00773197  26747-3  17868-2 0  9992
2 59052  97.4091  92.1958 0011779 146.8634 213.3382 15.97107191 65109
SITRO-AIS 30            
1 59053U 24039C   25116.77984743  .00510365  10097-3  17194-2 0  9998
2 59053  97.4090  91.6750 0012174 140.5029 219.7134 15.89882670 65054
SITRO-AIS 31            
1 59054U 24039D   25116.90026236  .00644168  17429-3  17105-2 0  9995
2 59054  97.4081  92.1538 0012131 143.9664 216.2431 15.94500603 65118
SITRO-AIS 33            
1 59055U 24039E   25116.91944556  .00713282  22040-3  17730-2 0  9994
2 59055  97.4099  92.2752 0011651 146.4909 213.7106 15.95756518 65113
SITRO-AIS 35            
1 59056U 24039F   25116.88651310  .00769400  26503-3  17677-2 0  9995
2 59056  97.4058  92.3315 0011911 145.7760 214.4287 15.97209845 65117
SITRO-AIS 32            
1 59057U 24039G   25116.89512650  .00568788  12946-3  17386-2 0  9999
2 59057  97.4090  92.0222 0012249 141.0673 219.1485 15.91796322 65099
SITRO-AIS 34            
1 59058U 24039H   25116.73191853  .00708090  21694-3  17605-2 0  9997
2 59058  97.4101  92.0745 0011874 146.6703 213.5322 15.95746388 65089
SITRO-AIS 36            
1 59059U 24039J   25116.73309389  .00618333  15775-3  17301-2 0  9999
2 59059  97.4097  92.0504 0011447 144.6305 215.5731 15.93520860 65088
SITRO-AIS 49            
1 59060U 24039K   25116.87551452  .00545240  11764-3  17201-2 0  9995
2 59060  97.4092  92.0290 0012013 141.3386 218.8750 15.91183562 65090
SITRO-AIS 50            
1 59061U 24039L   25116.88889618  .00980794  48718-3  17525-2 0  9990
2 59061  97.4007  92.5996 0011625 148.3014 211.8967 16.01731878 65137
SITRO-AIS 51            
1 59062U 24039M   25116.73141333  .00989961  50484-3  16860-2 0  9999
2 59062  97.4099  92.5109 0011012 154.5378 205.6446 16.02573854 65117
SITRO-AIS 52            
1 59063U 24039N   25116.88213172  .01142063  72795-3  17303-2 0  9994
2 59063  97.4013  92.7900 0011320 152.6014 207.5866 16.04595421 65149
SITRO-AIS 25            
1 59066U 24039R   25116.84097280  .00005744  00000+0  49219-3 0  9994
2 59066  95.3758 310.2653 0155944 339.6695  19.8362 14.88746931 62686
SITRO-AIS 26            
1 59067U 24039S   25116.86253311  .00006244  00000+0  53658-3 0  9994
2 59067  95.3757 310.2462 0156142 339.7757  19.7322 14.88600037 62686
SITRO-AIS 27            
1 59068U 24039T   25116.86699545  .00006239  00000+0  53270-3 0  9992
2 59068  95.3758 310.3579 0155397 339.1868  20.3071 14.88919761 62693
SITRO-AIS 28            
1 59071U 24039U   25116.85525987  .00005843  00000+0  49869-3 0  9992
2 59071  95.3759 310.3738 0155263 339.1477  20.3456 14.88960025 62699
GRBBETA                 
1 60237U 24128C   25116.81009462  .00007909  00000+0  59754-3 0  9997
2 60237  61.9925 232.1183 0048035  47.7783 312.7369 15.02207898 43626
OOV-CUBE (TUBSAT-30)    
1 60240U 24128F   25116.66970273  .00004831  00000+0  39393-3 0  9999
2 60240  61.9968 234.8457 0047458  44.3927 316.0951 14.99979734 43579
ROBUSTA-3A (MEDITERRAN*)
1 60243U 24128J   25116.03994847  .00012391  00000+0  88650-3 0  9996
2 60243  61.9890 234.3931 0046354  40.9860 319.4700 15.03930491 43527
LASARSAT                
1 62391U 24247Q   25116.17176566  .00027743  00000+0  11179-2 0  9997
2 62391  44.9888  41.5715 0006893 147.5081 212.6226 15.24402215 19286
CROCUBE                 
1 62394U 24247T   25116.17070164  .00028455  00000+0  11414-2 0  9990
2 62394  44.9878  41.5568 0007588 146.8281 213.3077 15.24538081 19283
